OBJECT_NAME,OBJECT_ID,EPOCH,MEAN_MOTION,ECCENTRICITY,INCLINATION,RA_OF_ASC_NODE,ARG_OF_PERICENTER,MEAN_ANOMALY,EPHEMERIS_TYPE,CLASSIFICATION_TYPE,NORAD_CAT_ID,ELEMENT_SET_NO,REV_AT_EPOCH,BSTAR,MEAN_MOTION_DOT,MEAN_MOTION_DDOT
APRIZESAT 2,2004-025A,2026-06-12T06:35:55.745664,14.38034037,.01042657,98.1009,329.5336,264.8543,94.0739,0,U,28366,999,15093,.59925052E-4,.149E-5,0
SAUDICOMSAT 1,2004-025D,2026-06-11T23:56:47.540544,14.55469564,.00329575,98.5771,172.9892,41.1947,319.1728,0,U,28369,999,16337,.85755515E-4,.326E-5,0
SAUDICOMSAT 2,2004-025E,2026-06-12T18:39:53.374176,14.49978981,.0054135,98.6641,175.8991,273.1398,86.3602,0,U,28370,999,15946,.78302E-4,.258E-5,0
APRIZESAT 1,2004-025G,2026-06-12T06:19:20.060832,14.51774662,.00448039,98.6304,173.8550,168.6530,191.5685,0,U,28372,999,16119,.63491175E-4,.209E-5,0
NANOSAT-1,2004-049B,2026-06-12T20:13:21.855648,14.80151655,.0003029,98.2270,300.3975,321.5222,38.5773,0,U,28493,999,15480,.13317E-3,.956E-5,0
SAUDICOMSAT 7,2007-012C,2026-06-12T04:46:21.791712,14.66105905,.00549603,98.3776,137.2285,210.9813,148.8144,0,U,31119,999,2170,.86636723E-4,.432E-5,0
SAUDICOMSAT 6,2007-012E,2026-06-12T20:22:03.406656,14.62553484,.0071368,98.4097,131.2844,341.3783,18.4808,0,U,31121,999,1955,.12182E-3,.587E-5,0
SAUDICOMSAT 5,2007-012H,2026-06-12T20:39:33.473376,14.68151529,.0048243,98.3487,138.6521,138.0355,222.4562,0,U,31124,999,2296,.10461E-3,.559E-5,0
SAUDICOMSAT 3,2007-012J,2026-06-12T19:53:36.260160,14.70698942,.0040403,98.3142,139.1682,66.5936,293.9511,0,U,31125,999,2418,.13896E-3,.803E-5,0
SAUDICOMSAT 4,2007-012L,2026-06-12T20:24:27.372384,14.64508366,.006205,98.3981,136.3322,272.0714,87.3383,0,U,31127,999,2065,.94807E-4,.462E-5,0
APRIZESAT 4,2009-041D,2026-06-12T04:47:31.286688,14.83873191,.00427474,98.1411,238.4206,339.4813,20.4682,0,U,35684,999,91062,.81733853E-4,.63E-5,0
APRIZESAT 3,2009-041F,2026-06-12T03:36:16.975872,14.96226409,.00627478,98.2052,316.1331,83.9418,276.8948,0,U,35686,999,91562,.12415693E-3,.1389E-4,0
S-NET D,2018-014G,2026-06-12T04:24:36.819936,15.16627635,.00094216,97.5372,68.0060,45.5733,314.6269,0,U,43186,999,45800,.25737731E-3,.4969E-4,0
S-NET B,2018-014H,2026-06-12T04:40:57.980928,15.16598115,.00099291,97.5379,68.0036,40.8556,319.3419,0,U,43187,999,45800,.26755407E-3,.5165E-4,0
S-NET A,2018-014J,2026-06-12T05:58:02.584128,15.16635862,.00098009,97.5389,68.2645,41.6460,318.5518,0,U,43188,999,45801,.25444843E-3,.4914E-4,0
S-NET C,2018-014K,2026-06-12T06:21:31.304160,15.16590724,.00109797,97.5405,68.3547,33.6648,326.5280,0,U,43189,999,45656,.2730585E-3,.5273E-4,0
SALSAT,2020-068K,2026-06-12T18:18:42.355008,15.29738569,.0008406,97.8846,166.5583,326.8032,33.2678,0,U,46495,999,31468,.2979E-3,.8507E-4,0
OOV-CUBE (TUBSAT-30),2024-128F,2026-06-11T14:22:54.209856,15.02751187,.0045327,61.9950,245.0577,132.4986,227.9949,0,U,60240,999,10527,.1598E-3,.1977E-4,0
LPNTSAT-001 (IOD-1),2026-065A,2026-06-12T17:27:51.876864,15.18516496,.0017153,97.4029,44.3319,25.7153,334.4930,0,U,68408,999,1158,.14916E-3,.3021E-4,0
